[{"OBJECT_NAME":"STARLINK-5053","OBJECT_ID":"2022-119AD","EPOCH":"2026-03-09T22:41:00.447648","MEAN_MOTION":15.08839492,"ECCENTRICITY":0.0001317,"INCLINATION":53.2186,"RA_OF_ASC_NODE":312.9563,"ARG_OF_PERICENTER":100.9237,"MEAN_ANOMALY":259.1903,"EPHEMERIS_TYPE":0,"CLASSIFICATION_TYPE":"U","NORAD_CAT_ID":53913,"ELEMENT_SET_NO":999,"REV_AT_EPOCH":19186,"BSTAR":-1.0001456e-5,"MEAN_MOTION_DOT":-4.47e-6,"MEAN_MOTION_DDOT":0},{"OBJECT_NAME":"COSMOS 374 DEB","OBJECT_ID":"1970-089K","EPOCH":"2026-03-09T10:49:05.969856","MEAN_MOTION":13.67888998,"ECCENTRICITY":0.06745217,"INCLINATION":62.9248,"RA_OF_ASC_NODE":184.2517,"ARG_OF_PERICENTER":114.5683,"MEAN_ANOMALY":252.716,"EPHEMERIS_TYPE":0,"CLASSIFICATION_TYPE":"U","NORAD_CAT_ID":4667,"ELEMENT_SET_NO":999,"REV_AT_EPOCH":67502,"BSTAR":0.0012077936,"MEAN_MOTION_DOT":5.178e-5,"MEAN_MOTION_DDOT":0}]
